{
    "links": {
        "self": "http://www.neowsapp.com/rest/v1/neo/3760230?api_key=iIulBulltgU6a56xZRHN4H3l9WmuAYTsLGpBGhQ2"
    },
    "id": "3760230",
    "neo_reference_id": "3760230",
    "name": "(2016 TX1)",
    "designation": "2016 TX1",
    "nasa_jpl_url": "http://ssd.jpl.nasa.gov/sbdb.cgi?sstr=3760230",
    "absolute_magnitude_h": 20.4,
    "estimated_diameter": {
        "kilometers": {
            "estimated_diameter_min": 0.2210828104,
            "estimated_diameter_max": 0.4943561926
        },
        "meters": {
            "estimated_diameter_min": 221.0828103591,
            "estimated_diameter_max": 494.3561926196
        },
        "miles": {
            "estimated_diameter_min": 0.137374447,
            "estimated_diameter_max": 0.3071786018
        },
        "feet": {
            "estimated_diameter_min": 725.3373275385,
            "estimated_diameter_max": 1621.9035709942
        }
    },
    "is_potentially_hazardous_asteroid": false,
    "close_approach_data": [
        {
            "close_approach_date": "2016-07-12",
            "close_approach_date_full": "2016-Jul-12 12:03",
            "epoch_date_close_approach": 1468324980000,
            "relative_velocity": {
                "kilometers_per_second": "3.269800919",
                "kilometers_per_hour": "11771.2833082854",
                "miles_per_hour": "7314.2176756399"
            },
            "miss_distance": {
                "astronomical": "0.3551293424",
                "lunar": "138.1453141936",
                "kilometers": "53126593.197540688",
                "miles": "33011334.2570419744"
            },
            "orbiting_body": "Earth"
        }
    ],
    "orbital_data": {
        "orbit_id": "7",
        "orbit_determination_date": "2017-04-06 11:33:19",
        "first_observation_date": "2016-10-01",
        "last_observation_date": "2016-10-23",
        "data_arc_in_days": 22,
        "observations_used": 20,
        "orbit_uncertainty": "9",
        "minimum_orbit_intersection": ".290424",
        "jupiter_tisserand_invariant": "3.402",
        "epoch_osculation": "2457664.5",
        "eccentricity": ".4493779825015652",
        "semi_major_axis": "2.360843653392066",
        "inclination": "5.585915967450984",
        "ascending_node_longitude": "268.5732263777243",
        "orbital_period": "1324.949322013593",
        "perihelion_distance": "1.299932495429115",
        "perihelion_argument": "35.97832169365621",
        "aphelion_distance": "3.421754811355016",
        "perihelion_time": "2457610.199801360864",
        "mean_anomaly": "14.75382581454569",
        "mean_motion": ".271708505388636",
        "equinox": "J2000",
        "orbit_class": {
            "orbit_class_type": "AMO",
            "orbit_class_description": "Near-Earth asteroid orbits similar to that of 1221 Amor",
            "orbit_class_range": "1.017 AU < q (perihelion) < 1.3 AU"
        }
    },
    "is_sentry_object": false
}